[{"OBJECT_NAME":"TRANSPORTER-11 OBJECT A","OBJECT_ID":"2024-149A","EPOCH":"2026-03-09T17:54:54.302112","MEAN_MOTION":15.31141332,"ECCENTRICITY":0.00031096,"INCLINATION":97.378,"RA_OF_ASC_NODE":149.0949,"ARG_OF_PERICENTER":191.001,"MEAN_ANOMALY":169.1164,"EPHEMERIS_TYPE":0,"CLASSIFICATION_TYPE":"U","NORAD_CAT_ID":60468,"ELEMENT_SET_NO":999,"REV_AT_EPOCH":8683,"BSTAR":0.00036053677,"MEAN_MOTION_DOT":0.00010774,"MEAN_MOTION_DDOT":0},{"OBJECT_NAME":"STARLINK-33584","OBJECT_ID":"2025-015D","EPOCH":"2026-03-09T21:28:31.618560","MEAN_MOTION":15.30194261,"ECCENTRICITY":0.00012812,"INCLINATION":53.1619,"RA_OF_ASC_NODE":321.4267,"ARG_OF_PERICENTER":85.3339,"MEAN_ANOMALY":274.7808,"EPHEMERIS_TYPE":0,"CLASSIFICATION_TYPE":"U","NORAD_CAT_ID":62761,"ELEMENT_SET_NO":999,"REV_AT_EPOCH":6451,"BSTAR":0.0010987009,"MEAN_MOTION_DOT":0.00032317,"MEAN_MOTION_DDOT":0}]
